start=new Date('%Y-%m-41T00:00:00.000Z').valueOf();
sats=[{"GP_ID":"183155382","FILE":"3100512","OBJECT_ID":"2021-027AD","DECAY_DATE":null,"ARG_OF_PERICENTER":"112.0123","APOAPSIS":"548.606","SEMIMAJOR_AXIS":"6925.370","BSTAR":"0.00005499500000","TIME_SYSTEM":"UTC","TLE_LINE1":"1 48119U 21027AD  21232.80845851  .00000537  00000-0  54995-4 0  9995","OBJECT_TYPE":"PAYLOAD","ECCENTRICITY":"0.00019800","CLASSIFICATION_TYPE":"U","CENTER_NAME":"EARTH","RA_OF_ASC_NODE":"52.0793","MEAN_MOTION":"15.06393149","OBJECT_NAME":"STARLINK-2459","ELEMENT_SET_NO":"999","PERIOD":"95.593","MEAN_MOTION_DOT":"0.00000537","TLE_LINE2":"2 48119  53.0555  52.0793 0001980 112.0123 248.1076 15.06393149 22207","EPHEMERIS_TYPE":"0","MEAN_MOTION_DDOT":"0.0000000000000","EPOCH":"2021-08-20T19:24:10.815264","SITE":"AFETR","REF_FRAME":"TEME","PERIAPSIS":"545.863","MEAN_ANOMALY":"248.1076","INCLINATION":"53.0555","NORAD_CAT_ID":"48119","LAUNCH_DATE":"2021-04-07","MEAN_ELEMENT_THEORY":"SGP4","REV_AT_EPOCH":"2220","COUNTRY_CODE":"US","RCS_SIZE":"LARGE"},{"APOAPSIS":"548.514","ARG_OF_PERICENTER":"101.2983","DECAY_DATE":null,"OBJECT_ID":"2021-027AE","FILE":"3100599","GP_ID":"183159241","RA_OF_ASC_NODE":"70.8627","CENTER_NAME":"EARTH","CLASSIFICATION_TYPE":"U","ECCENTRICITY":"0.00015630","OBJECT_TYPE":"PAYLOAD","TLE_LINE1":"1 48120U 21027AE  21233.07935042  .00006259  00000-0  43957-3 0  9991","TIME_SYSTEM":"UTC","BSTAR":"0.00043957000000","SEMIMAJOR_AXIS":"6925.566","EPOCH":"2021-08-21T01:54:15.876288","MEAN_MOTION_DDOT":"0.0000000000000","EPHEMERIS_TYPE":"0","TLE_LINE2":"2 48120  53.0562  70.8627 0001563 101.2983 258.8181 15.06328977 21573","MEAN_MOTION_DOT":"0.00006259","PERIOD":"95.597","ELEMENT_SET_NO":"999","MEAN_MOTION":"15.06328977","OBJECT_NAME":"STARLINK-2460","COUNTRY_CODE":"US","RCS_SIZE":"LARGE","LAUNCH_DATE":"2021-04-07","REV_AT_EPOCH":"2157","MEAN_ELEMENT_THEORY":"SGP4","NORAD_CAT_ID":"48120","INCLINATION":"53.0562","MEAN_ANOMALY":"258.8181","PERIAPSIS":"546.349","REF_FRAME":"TEME","SITE":"AFETR"},{"MEAN_ANOMALY":"250.9553","INCLINATION":"53.0561","REF_FRAME":"TEME","SITE":"AFETR","PERIAPSIS":"545.587","LAUNCH_DATE":"2021-04-07","REV_AT_EPOCH":"2206","MEAN_ELEMENT_THEORY":"SGP4","RCS_SIZE":"LARGE","COUNTRY_CODE":"US","NORAD_CAT_ID":"48121","MEAN_MOTION_DOT":"-0.00001004","MEAN_MOTION":"15.06396413","OBJECT_NAME":"STARLINK-2462","ELEMENT_SET_NO":"999","PERIOD":"95.592","EPOCH":"2021-08-20T18:51:00.642240","EPHEMERIS_TYPE":"0","TLE_LINE2":"2 48121  53.0561  62.1837 0002365 109.1692 250.9553 15.06396413 22066","MEAN_MOTION_DDOT":"0.0000000000000","BSTAR":"-0.00004846800000","TLE_LINE1":"1 48121U 21027AF  21232.78542410 -.00001004  00000-0 -48468-4 0  9990","TIME_SYSTEM":"UTC","SEMIMAJOR_AXIS":"6925.360","CLASSIFICATION_TYPE":"U","CENTER_NAME":"EARTH","RA_OF_ASC_NODE":"62.1837","OBJECT_TYPE":"PAYLOAD","ECCENTRICITY":"0.00023650","FILE":"3100512","OBJECT_ID":"2021-027AF","DECAY_DATE":null,"GP_ID":"183155883","ARG_OF_PERICENTER":"109.1692","APOAPSIS":"548.862"},{"MEAN_ANOMALY":"250.0866","INCLINATION":"53.0558","REF_FRAME":"TEME","SITE":"AFETR","PERIAPSIS":"545.684","LAUNCH_DATE":"2021-04-07","REV_AT_EPOCH":"2214","MEAN_ELEMENT_THEORY":"SGP4","COUNTRY_CODE":"US","RCS_SIZE":"LARGE","NORAD_CAT_ID":"48122","MEAN_MOTION_DOT":"0.00000426","OBJECT_NAME":"STARLINK-2463","MEAN_MOTION":"15.06394725","ELEMENT_SET_NO":"999","PERIOD":"95.592","EPOCH":"2021-08-20T18:52:58.101312","EPHEMERIS_TYPE":"0","TLE_LINE2":"2 48122  53.0558  57.1777 0002232 110.0364 250.0866 15.06394725 22141","MEAN_MOTION_DDOT":"0.0000000000000","BSTAR":"0.00004754100000","TIME_SYSTEM":"UTC","TLE_LINE1":"1 48122U 21027AG  21232.78678358  .00000426  00000-0  47541-4 0  9998","SEMIMAJOR_AXIS":"6925.365","CLASSIFICATION_TYPE":"U","CENTER_NAME":"EARTH","RA_OF_ASC_NODE":"57.1777","OBJECT_TYPE":"PAYLOAD","ECCENTRICITY":"0.00022320","FILE":"3100512","OBJECT_ID":"2021-027AG","DECAY_DATE":null,"GP_ID":"183156634","ARG_OF_PERICENTER":"110.0364","APOAPSIS":"548.775"},{"OBJECT_ID":"2021-027AH","DECAY_DATE":null,"FILE":"3100798","GP_ID":"183163733","APOAPSIS":"548.617","ARG_OF_PERICENTER":"111.0527","TIME_SYSTEM":"UTC","TLE_LINE1":"1 48123U 21027AH  21233.19179522 -.00000591  00000-0 -20790-4 0  9996","BSTAR":"-0.00002079000000","SEMIMAJOR_AXIS":"6925.359","CENTER_NAME":"EARTH","RA_OF_ASC_NODE":"50.3584","CLASSIFICATION_TYPE":"U","ECCENTRICITY":"0.00020120","OBJECT_TYPE":"PAYLOAD","MEAN_MOTION_DOT":"-0.00000591","ELEMENT_SET_NO":"999","PERIOD":"95.592","MEAN_MOTION":"15.06396737","OBJECT_NAME":"STARLINK-2464","EPOCH":"2021-08-21T04:36:11.107008","EPHEMERIS_TYPE":"0","TLE_LINE2":"2 48123  53.0558  50.3584 0002012 111.0527 249.0678 15.06396737 21863","MEAN_MOTION_DDOT":"0.0000000000000","MEAN_ANOMALY":"249.0678","INCLINATION":"53.0558","PERIAPSIS":"545.830","SITE":"AFETR","REF_FRAME":"TEME","LAUNCH_DATE":"2021-04-07","MEAN_ELEMENT_THEORY":"SGP4","REV_AT_EPOCH":"2186","COUNTRY_CODE":"US","RCS_SIZE":"LARGE","NORAD_CAT_ID":"48123"},{"NORAD_CAT_ID":"48124","MEAN_ELEMENT_THEORY":"SGP4","LAUNCH_DATE":"2021-04-07","REV_AT_EPOCH":"2206","RCS_SIZE":"LARGE","COUNTRY_CODE":"US","PERIAPSIS":"545.954","SITE":"AFETR","REF_FRAME":"TEME","MEAN_ANOMALY":"254.5681","INCLINATION":"53.0566","TLE_LINE2":"2 48124  53.0566  62.1535 0001818 105.5509 254.5681 15.06400109 22068","EPHEMERIS_TYPE":"0","MEAN_MOTION_DDOT":"0.0000000000000","EPOCH":"2021-08-20T19:01:36.537600","ELEMENT_SET_NO":"999","PERIOD":"95.592","MEAN_MOTION":"15.06400109","OBJECT_NAME":"STARLINK-2465","MEAN_MOTION_DOT":"0.00000419","ECCENTRICITY":"0.00018180","OBJECT_TYPE":"PAYLOAD","CENTER_NAME":"EARTH","RA_OF_ASC_NODE":"62.1535","CLASSIFICATION_TYPE":"U","SEMIMAJOR_AXIS":"6925.348","TIME_SYSTEM":"UTC","TLE_LINE1":"1 48124U 21027AJ  21232.79278400  .00000419  00000-0  47066-4 0  9999","BSTAR":"0.00004706600000","APOAPSIS":"548.472","ARG_OF_PERICENTER":"105.5509","GP_ID":"183155132","OBJECT_ID":"2021-027AJ","DECAY_DATE":null,"FILE":"3100512"},{"MEAN_ANOMALY":"260.1926","INCLINATION":"53.0562","PERIAPSIS":"545.646","REF_FRAME":"TEME","SITE":"AFETR","LAUNCH_DATE":"2021-04-07","MEAN_ELEMENT_THEORY":"SGP4","REV_AT_EPOCH":"2193","COUNTRY_CODE":"US","RCS_SIZE":"LARGE","NORAD_CAT_ID":"48125","MEAN_MOTION_DOT":"-0.00001384","ELEMENT_SET_NO":"999","PERIOD":"95.593","OBJECT_NAME":"STARLINK-2466","MEAN_MOTION":"15.06389006","EPOCH":"2021-08-20T18:48:19.222848","EPHEMERIS_TYPE":"0","TLE_LINE2":"2 48125  53.0562  72.1906 0002312  99.9324 260.1926 15.06389006 21931","MEAN_MOTION_DDOT":"0.0000000000000","TIME_SYSTEM":"UTC","TLE_LINE1":"1 48125U 21027AK  21232.78355582 -.00001384  00000-0 -73999-4 0  9994","BSTAR":"-0.00007399900000","SEMIMAJOR_AXIS":"6925.382","CENTER_NAME":"EARTH","RA_OF_ASC_NODE":"72.1906","CLASSIFICATION_TYPE":"U","ECCENTRICITY":"0.00023120","OBJECT_TYPE":"PAYLOAD","OBJECT_ID":"2021-027AK","DECAY_DATE":null,"FILE":"3100512","GP_ID":"183156384","APOAPSIS":"548.848","ARG_OF_PERICENTER":"99.9324"},{"MEAN_MOTION_DOT":"-0.00001105","PERIOD":"95.592","ELEMENT_SET_NO":"999","OBJECT_NAME":"STARLINK-2467","MEAN_MOTION":"15.06394980","EPOCH":"2021-08-21T05:23:57.225696","MEAN_MOTION_DDOT":"0.0000000000000","EPHEMERIS_TYPE":"0","TLE_LINE2":"2 48126  53.0465  50.2664 0001749 114.0280 246.0892 15.06394980 21870","INCLINATION":"53.0465","MEAN_ANOMALY":"246.0892","PERIAPSIS":"546.018","SITE":"AFETR","REF_FRAME":"TEME","RCS_SIZE":"LARGE","COUNTRY_CODE":"US","REV_AT_EPOCH":"2187","LAUNCH_DATE":"2021-04-07","MEAN_ELEMENT_THEORY":"SGP4","NORAD_CAT_ID":"48126","DECAY_DATE":null,"OBJECT_ID":"2021-027AL","FILE":"3100780","GP_ID":"183163497","APOAPSIS":"548.440","ARG_OF_PERICENTER":"114.0280","TIME_SYSTEM":"UTC","TLE_LINE1":"1 48126U 21027AL  21233.22496789 -.00001105  00000-0 -55279-4 0  9992","BSTAR":"-0.00005527900000","SEMIMAJOR_AXIS":"6925.364","RA_OF_ASC_NODE":"50.2664","CENTER_NAME":"EARTH","CLASSIFICATION_TYPE":"U","ECCENTRICITY":"0.00017490","OBJECT_TYPE":"PAYLOAD"},{"NORAD_CAT_ID":"48127","MEAN_ELEMENT_THEORY":"SGP4","LAUNCH_DATE":"2021-04-07","REV_AT_EPOCH":"2193","RCS_SIZE":"LARGE","COUNTRY_CODE":"US","PERIAPSIS":"545.766","REF_FRAME":"TEME","SITE":"AFETR","MEAN_ANOMALY":"267.7305","INCLINATION":"53.0562","TLE_LINE2":"2 48127  53.0562  72.0375 0002094  92.3924 267.7305 15.06399219 21933","EPHEMERIS_TYPE":"0","MEAN_MOTION_DDOT":"0.0000000000000","EPOCH":"2021-08-20T19:37:26.961024","ELEMENT_SET_NO":"999","PERIOD":"95.592","OBJECT_NAME":"STARLINK-2468","MEAN_MOTION":"15.06399219","MEAN_MOTION_DOT":"-0.00001325","ECCENTRICITY":"0.00020940","OBJECT_TYPE":"PAYLOAD","CENTER_NAME":"EARTH","RA_OF_ASC_NODE":"72.0375","CLASSIFICATION_TYPE":"U","SEMIMAJOR_AXIS":"6925.351","TIME_SYSTEM":"UTC","TLE_LINE1":"1 48127U 21027AM  21232.81767316 -.00001325  00000-0 -70061-4 0  9994","BSTAR":"-0.00007006100000","APOAPSIS":"548.666","ARG_OF_PERICENTER":"92.3924","GP_ID":"183155383","OBJECT_ID":"2021-027AM","DECAY_DATE":null,"FILE":"3100512"},{"TLE_LINE2":"2 48128  53.0467  25.9139 0004771   6.6342 353.4738 15.73178747 22231","EPHEMERIS_TYPE":"0","MEAN_MOTION_DDOT":"0.0000000000000","EPOCH":"2021-08-21T10:23:01.414464","MEAN_MOTION":"15.73178747","OBJECT_NAME":"STARLINK-2469","ELEMENT_SET_NO":"999","PERIOD":"91.534","MEAN_MOTION_DOT":"-0.00040907","NORAD_CAT_ID":"48128","MEAN_ELEMENT_THEORY":"SGP4","LAUNCH_DATE":"2021-04-07","REV_AT_EPOCH":"2223","COUNTRY_CODE":"US","RCS_SIZE":"LARGE","REF_FRAME":"TEME","SITE":"AFETR","PERIAPSIS":"346.611","MEAN_ANOMALY":"353.4738","INCLINATION":"53.0467","ARG_OF_PERICENTER":"6.6342","APOAPSIS":"353.031","GP_ID":"183163258","FILE":"3100781","OBJECT_ID":"2021-027AN","DECAY_DATE":null,"OBJECT_TYPE":"PAYLOAD","ECCENTRICITY":"0.00047710","CLASSIFICATION_TYPE":"U","CENTER_NAME":"EARTH","RA_OF_ASC_NODE":"25.9139","SEMIMAJOR_AXIS":"6727.956","BSTAR":"-0.00028842000000","TLE_LINE1":"1 48128U 21027AN  21233.43265526 -.00040907  00000-0 -28842-3 0  9998","TIME_SYSTEM":"UTC"}];
